[{"OBJECT_NAME":"NUSAT-50 (NANCY ROMAN)","OBJECT_ID":"2024-149AB","EPOCH":"2026-03-09T19:15:16.765632","MEAN_MOTION":15.29713355,"ECCENTRICITY":0.00025229,"INCLINATION":97.3817,"RA_OF_ASC_NODE":150.7693,"ARG_OF_PERICENTER":238.0469,"MEAN_ANOMALY":122.0527,"EPHEMERIS_TYPE":0,"CLASSIFICATION_TYPE":"U","NORAD_CAT_ID":60493,"ELEMENT_SET_NO":999,"REV_AT_EPOCH":8693,"BSTAR":0.0004225155,"MEAN_MOTION_DOT":0.00012094,"MEAN_MOTION_DDOT":0},{"OBJECT_NAME":"STARLINK-33621","OBJECT_ID":"2025-063N","EPOCH":"2026-03-09T22:20:22.551648","MEAN_MOTION":15.30221212,"ECCENTRICITY":0.0001866,"INCLINATION":53.1606,"RA_OF_ASC_NODE":48.6935,"ARG_OF_PERICENTER":96.4994,"MEAN_ANOMALY":263.622,"EPHEMERIS_TYPE":0,"CLASSIFICATION_TYPE":"U","NORAD_CAT_ID":63375,"ELEMENT_SET_NO":999,"REV_AT_EPOCH":5478,"BSTAR":0.0013593555,"MEAN_MOTION_DOT":0.00040146,"MEAN_MOTION_DDOT":0}]
